STARLINK-11252 [DTC]    
1 61051U 24164B   26053.62693854  .00001822  00000+0  19897-4 0  9999
2 61051  53.1593  25.4846 0001060  91.4874 268.6265 15.69700594 83057
STARLINK-11230 [DTC]    
1 61053U 24164D   26053.93545180  .00002760  00000+0  27612-4 0  9999
2 61053  53.1593  23.8445 0000907 106.2065 253.9053 15.69724084 83100
STARLINK-11294 [DTC]    
1 61054U 24164E   26053.93056398 -.00000548  00000+0  34570-6 0  9994
2 61054  53.1567  23.8133 0001941 113.6625 246.4597 15.69706772 83103
STARLINK-11268 [DTC]    
1 61055U 24164F   26053.92564153  .00000809  00000+0  11530-4 0  9995
2 61055  53.1598  23.7904 0001032  27.2225 332.8847 15.69728160 83103
STARLINK-11156 [DTC]    
1 61056U 24164G   26053.92073713  .00000563  00000+0  95034-5 0  9992
2 61056  53.1585  23.7510 0000807 100.3647 259.7462 15.69703682 83105
STARLINK-11231 [DTC]    
1 61057U 24164H   26053.21559346 -.00005531  00000+0 -40882-4 0  9998
2 61057  53.1590  27.9071 0000591  62.1304 297.9774 15.69680738 82986
STARLINK-11299 [DTC]    
1 61058U 24164J   26053.91102667  .00004008  00000+0  37886-4 0  9992
2 61058  53.1591  24.4196 0001138 102.4941 257.6204 15.69734133 83094
STARLINK-11154 [DTC]    
1 61059U 24164K   26053.90612463  .00001452  00000+0  16837-4 0  9995
2 61059  53.1600  24.3864 0001196 161.9658 198.1403 15.69716146 83090
STARLINK-11297 [DTC]    
1 61060U 24164L   26053.90121798  .00001646  00000+0  18428-4 0  9996
2 61060  53.1606  24.3542 0000562  85.7642 274.3440 15.69719545 83097
STARLINK-11233 [DTC]    
1 61061U 24164M   26053.19597339 -.00000991  00000+0 -33310-5 0  9998
2 61061  53.1591  27.7753 0000697  67.3801 292.7291 15.69694105 82983
STARLINK-11236 [DTC]    
1 61062U 24164N   26053.19106307  .00001662  00000+0  18583-4 0  9998
2 61062  53.1604  27.7436 0001505 101.0745 259.0442 15.69698615 82983
STARLINK-32350          
1 61063U 24164P   26053.70529898  .00000579  00000+0  31683-4 0  9992
2 61063  53.1572 160.6999 0001063  69.4586 290.6528 15.30190771 81183
STARLINK-32378          
1 61064U 24164Q   26053.70843487  .00006789  00000+0  24090-3 0  9998
2 61064  53.1602 160.7168 0001111  95.7687 264.3440 15.30229526 81187
STARLINK-32321          
1 61065U 24164R   26053.58733857  .00002078  00000+0  82303-4 0  9993
2 61065  53.1608 161.3894 0001232  93.8220 266.2921 15.30191000 81161
STARLINK-32381          
1 61066U 24164S   26053.79383159  .00010188  00000+0  35553-3 0  9998
2 61066  53.1571 160.5396 0000817  85.8274 274.2820 15.30208327 81198
STARLINK-32385          
1 61068U 24164U   26053.58416688  .00002269  00000+0  88697-4 0  9990
2 61068  53.1608 161.3680 0001233  90.1819 269.9323 15.30200480 81161
STARLINK-32380          
1 61069U 24164V   26053.58100656  .00001769  00000+0  71861-4 0  9995
2 61069  53.1592 161.3395 0001235  65.0613 295.0516 15.30190439 81168
STARLINK-32375          
1 61070U 24164W   26053.59050392  .00003742  00000+0  13846-3 0  9990
2 61070  53.1614 161.4032 0001226  84.6892 275.4249 15.30189416 81168
QAEM 100 R/B            
1 61071U 24165A   26053.91875510  .00006522  00000+0  35388-3 0  9999
2 61071  64.0738  49.3144 0058590 312.5476  47.0702 15.13973273 79552
CHAMRAN-1               
1 61072U 24165B   26053.87762035  .00006748  00000+0  41574-3 0  9996
2 61072  64.0765  57.7954 0044098 311.4955  48.2378 15.09999735 79393
2024-166B               
1 61180U 24166B   26053.82636189  .00007156  00000+0  48227-4 0  9999
2 61180  96.6941 309.1880 0004705  34.2626 325.8943 15.75402239 82733
GSAT0232 (GALILEO 32)   
1 61182U 24167A   26048.66150565  .00000069  00000+0  00000+0 0  9995
2 61182  55.2225 224.5881 0003600 296.6314 116.1306  1.70443939  8265
GSAT0226 (GALILEO 31)   
1 61183U 24167B   26053.70807522  .00000067  00000+0  00000+0 0  9997
2 61183  55.2211 224.4582 0001789 125.1272 236.2432  1.70473775  8909
BEIDOU-3 M25            
1 61186U 24168B   26053.82334244 -.00000042  00000+0  00000+0 0  9994
2 61186  54.5745 306.2186 0004464 315.4918 227.5599  1.86229816  9651
BEIDOU-3 M27            
1 61187U 24168C   26053.62366147 -.00000042  00000+0  00000+0 0  9990
2 61187  54.5701 306.2089 0002867  14.2411 169.9192  1.86229978  7120
JILIN-01 KUANFU 02B 1   
1 61189U 24169A   26053.95093219  .00005388  00000+0  33590-3 0  9997
2 61189  97.5576 145.1539 0007339  53.6113 306.5793 15.09933740 78598
JILIN-01 KUANFU 02B 2   
1 61190U 24169B   26053.93139837  .00006606  00000+0  41066-3 0  9995
2 61190  97.5577 144.5261 0014815  57.2843 302.9813 15.09889867 78596
JILIN-01 KUANFU 02B 3   
1 61191U 24169C   26053.93981274  .00006024  00000+0  37389-3 0  9993
2 61191  97.5568 144.9776 0012918 357.8877   2.2295 15.10003220 78597
JILIN-01 KUANFU 02B 4   
1 61192U 24169D   26053.91028929  .00005842  00000+0  37280-3 0  9998
2 61192  97.5541 144.5347 0008350 320.7561  39.3061 15.09037389 78596
JILIN-01 KUANFU 02B 5   
1 61193U 24169E   26053.89792657  .00005042  00000+0  32182-3 0  9990
2 61193  97.5581 145.2338 0011957 350.8427   9.2581 15.09071560 78593
