OBJECT_NAME,OBJECT_ID,EPOCH,MEAN_MOTION,ECCENTRICITY,INCLINATION,RA_OF_ASC_NODE,ARG_OF_PERICENTER,MEAN_ANOMALY,EPHEMERIS_TYPE,CLASSIFICATION_TYPE,NORAD_CAT_ID,ELEMENT_SET_NO,REV_AT_EPOCH,BSTAR,MEAN_MOTION_DOT,MEAN_MOTION_DDOT
STARLINK-11252 [DTC],2024-164B,2026-02-22T15:02:47.489856,15.69700594,.000106,53.1593,25.4846,91.4874,268.6265,0,U,61051,999,8305,.19897E-4,.1822E-4,0
STARLINK-11230 [DTC],2024-164D,2026-02-22T22:27:03.035520,15.69724084,.00009072,53.1593,23.8445,106.2065,253.9053,0,U,61053,999,8310,.2761158E-4,.276E-4,0
STARLINK-11294 [DTC],2024-164E,2026-02-22T22:20:00.727872,15.69706772,.00019415,53.1567,23.8133,113.6625,246.4597,0,U,61054,999,8310,.345704E-6,-.548E-5,0
STARLINK-11268 [DTC],2024-164F,2026-02-22T22:12:55.428192,15.69728160,.00010324,53.1598,23.7904,27.2225,332.8847,0,U,61055,999,8310,.11529553E-4,.809E-5,0
STARLINK-11156 [DTC],2024-164G,2026-02-22T22:05:51.688032,15.69703682,.0000807,53.1585,23.7510,100.3647,259.7462,0,U,61056,999,8310,.9503393E-5,.563E-5,0
STARLINK-11231 [DTC],2024-164H,2026-02-22T05:10:27.274944,15.69680738,.00005918,53.1590,27.9071,62.1304,297.9774,0,U,61057,999,8298,-.40881948E-4,-.5531E-4,0
STARLINK-11299 [DTC],2024-164J,2026-02-22T21:51:52.704288,15.69734133,.00011388,53.1591,24.4196,102.4941,257.6204,0,U,61058,999,8309,.37886407E-4,.4008E-4,0
STARLINK-11154 [DTC],2024-164K,2026-02-22T21:44:49.168032,15.69716146,.00011961,53.1600,24.3864,161.9658,198.1403,0,U,61059,999,8309,.16836678E-4,.1452E-4,0
STARLINK-11297 [DTC],2024-164L,2026-02-22T21:37:45.233472,15.69719545,.00005629,53.1606,24.3542,85.7642,274.3440,0,U,61060,999,8309,.18428112E-4,.1646E-4,0
STARLINK-11233 [DTC],2024-164M,2026-02-22T04:42:12.100896,15.69694105,.00006971,53.1591,27.7753,67.3801,292.7291,0,U,61061,999,8298,-.3330993E-5,-.991E-5,0
STARLINK-11236 [DTC],2024-164N,2026-02-22T04:35:07.849248,15.69698615,.00015058,53.1604,27.7436,101.0745,259.0442,0,U,61062,999,8298,.18582524E-4,.1662E-4,0
STARLINK-32350,2024-164P,2026-02-22T16:55:37.831872,15.30190771,.0001063,53.1572,160.6999,69.4586,290.6528,0,U,61063,999,8118,.31683098E-4,.579E-5,0
STARLINK-32378,2024-164Q,2026-02-22T17:00:08.772768,15.30229526,.0001111,53.1602,160.7168,95.7687,264.3440,0,U,61064,999,8118,.24089972E-3,.6789E-4,0
STARLINK-32321,2024-164R,2026-02-22T14:05:46.052448,15.30191000,.0001232,53.1608,161.3894,93.8220,266.2921,0,U,61065,999,8116,.82303E-4,.2078E-4,0
STARLINK-32381,2024-164S,2026-02-22T19:03:07.049376,15.30208327,.00008174,53.1571,160.5396,85.8274,274.2820,0,U,61066,999,8119,.35552638E-3,.10188E-3,0
STARLINK-32385,2024-164U,2026-02-22T14:01:12.018432,15.30200480,.0001233,53.1608,161.3680,90.1819,269.9323,0,U,61068,999,8116,.88697E-4,.2269E-4,0
STARLINK-32380,2024-164V,2026-02-22T13:56:38.966784,15.30190439,.0001235,53.1592,161.3395,65.0613,295.0516,0,U,61069,999,8116,.71861E-4,.1769E-4,0
STARLINK-32375,2024-164W,2026-02-22T14:10:19.538688,15.30189416,.0001226,53.1614,161.4032,84.6892,275.4249,0,U,61070,999,8116,.13846E-3,.3742E-4,0
QAEM 100 R/B,2024-165A,2026-02-22T22:03:00.440640,15.13973273,.00585909,64.0738,49.3144,312.5476,47.0702,0,U,61071,999,7955,.35388462E-3,.6522E-4,0
CHAMRAN-1,2024-165B,2026-02-22T21:03:46.398240,15.09999735,.0044098,64.0765,57.7954,311.4955,48.2378,0,U,61072,999,7939,.41574E-3,.6748E-4,0
2024-166B,2024-166B,2026-02-22T19:49:57.667296,15.75402239,.0004705,96.6941,309.1880,34.2626,325.8943,0,U,61180,999,8273,.48227E-4,.7156E-4,0
GSAT0232 (GALILEO 32),2024-167A,2026-02-17T15:52:34.088160,1.70443939,.00036004,55.2225,224.5881,296.6314,116.1306,0,U,61182,999,826,0,.69E-6,0
GSAT0226 (GALILEO 31),2024-167B,2026-02-22T16:59:37.699008,1.70473775,.00017896,55.2211,224.4582,125.1272,236.2432,0,U,61183,999,890,0,.67E-6,0
BEIDOU-3 M25,2024-168B,2026-02-22T19:45:36.786816,1.86229816,.00044649,54.5745,306.2186,315.4918,227.5599,0,U,61186,999,965,0,-.42E-6,0
BEIDOU-3 M27,2024-168C,2026-02-22T14:58:04.351008,1.86229978,.0002867,54.5701,306.2089,14.2411,169.9192,0,U,61187,999,712,0,-.42E-6,0
JILIN-01 KUANFU 02B 1,2024-169A,2026-02-22T22:49:20.541216,15.09933740,.00073396,97.5576,145.1539,53.6113,306.5793,0,U,61189,999,7859,.3359035E-3,.5388E-4,0
JILIN-01 KUANFU 02B 2,2024-169B,2026-02-22T22:21:12.819168,15.09889867,.00148156,97.5577,144.5261,57.2843,302.9813,0,U,61190,999,7859,.41066202E-3,.6606E-4,0
JILIN-01 KUANFU 02B 3,2024-169C,2026-02-22T22:33:19.820736,15.10003220,.00129189,97.5568,144.9776,357.8877,2.2295,0,U,61191,999,7859,.37389043E-3,.6024E-4,0
JILIN-01 KUANFU 02B 4,2024-169D,2026-02-22T21:50:48.994656,15.09037389,.000835,97.5541,144.5347,320.7561,39.3061,0,U,61192,999,7859,.37279958E-3,.5842E-4,0
JILIN-01 KUANFU 02B 5,2024-169E,2026-02-22T21:33:00.855648,15.09071560,.00119576,97.5581,145.2338,350.8427,9.2581,0,U,61193,999,7859,.32182203E-3,.5042E-4,0
